[{"name":"OSCAR 7 (AO-7)","line1":"1 07530U 74089B   26177.30866213 -.00000031  00000+0  98450-4 0  9999","line2":"2 07530 101.9899 190.6503 0012643 113.2400 258.3057 12.53698198361669"},{"name":"PHASE 3B (AO-10)","line1":"1 14129U 83058B   26174.68191131 -.00000085  00000+0  00000+0 0  9993","line2":"2 14129  25.9176 218.4895 6008564 117.4551 314.9460  2.05872578295624"},{"name":"UOSAT 2 (UO-11)","line1":"1 14781U 84021B   26177.61814837  .00001135  00000+0  12100-3 0  9993","line2":"2 14781  97.8061 143.0876 0008459 143.3075 216.8724 14.90805248258536"},{"name":"LUSAT (LO-19)","line1":"1 20442U 90005G   26177.32165971  .00000114  00000+0  57434-4 0  9995","line2":"2 20442  98.8847 199.3789 0011652 173.9704 186.1622 14.34125703903705"},{"name":"EYESAT A (AO-27)","line1":"1 22825U 93061C   26177.71928286  .00000080  00000+0  47386-4 0  9993","line2":"2 22825  98.6877 245.1292 0009493  75.2353 284.9880 14.30944565708365"},{"name":"ITAMSAT (IO-26)","line1":"1 22826U 93061D   26177.69585115  .00000077  00000+0  45824-4 0  9992","line2":"2 22826  98.6824 245.0243 0009877  60.2758 299.9406 14.31371714708677"},{"name":"RADIO ROSTO (RS15)","line1":"1 23439U 94085A   26177.69440288 -.00000041  00000+0  45074-4 0  9990","line2":"2 23439  64.8178 287.8408 0156265   2.1190 358.0364 11.27583424296971"},{"name":"JAS-2 (FO-29)","line1":"1 24278U 96046B   26177.47891755 -.00000015  00000+0  18217-4 0  9996","line2":"2 24278  98.5232  25.0778 0350900  72.3924 291.5216 13.53274769474421"},{"name":"TECHSAT 1B (GO-32)","line1":"1 25397U 98043D   26177.47694676  .00000058  00000+0  45347-4 0  9991","line2":"2 25397  99.0071 170.4701 0001524 145.3708 214.7569 14.24430067452651"},{"name":"ISS (ZARYA)","line1":"1 25544U 98067A   26177.47752734  .00007960  00000+0  15019-3 0  9992","line2":"2 25544  51.6324 254.1054 0004309 234.2414 125.8174 15.49438531573196"},{"name":"PCSAT (NO-44)","line1":"1 26931U 01043C   26177.51858728  .00000083  00000+0  61958-4 0  9999","line2":"2 26931  67.0492 220.1368 0006039 265.1610  94.8803 14.31958870291787"},{"name":"SAUDISAT 1C (SO-50)","line1":"1 27607U 02058C   26177.25860940  .00000937  00000+0  12777-3 0  9999","line2":"2 27607  64.5520 100.9188 0075048 260.7782  98.4830 14.83064844265804"},{"name":"CUTE-1 (CO-55)","line1":"1 27844U 03031E   26176.95866144  .00000278  00000+0  13913-3 0  9993","line2":"2 27844  98.6736 185.4073 0010067 153.3060 206.8639 14.24340671192925"},{"name":"CUBESAT XI-IV (CO-57)","line1":"1 27848U 03031J   26176.95152158  .00000236  00000+0  12262-3 0  9990","line2":"2 27848  98.6767 185.1059 0009590 171.2746 188.8601 14.23625133192626"},{"name":"MOZHAETS 4 (RS22)","line1":"1 27939U 03042A   26177.65355623  .00001107  00000+0  17863-3 0  9993","line2":"2 27939  98.3473   2.2801 0010047 235.5664 197.8593 14.73483376216942"},{"name":"CUBESAT XI-V","line1":"1 28895U 05043F   26177.71119501  .00001367  00000+0  22252-3 0  9994","line2":"2 28895  98.2993 333.5333 0014302 170.4305 189.7177 14.72655432103156"},{"name":"CUTE-1.7+APD II (CO-65)","line1":"1 32785U 08021C   26177.66180106  .00004656  00000+0  29417-3 0  9993","line2":"2 32785  97.8273 159.2777 0008803   9.9021 350.2379 15.09537507986623"},{"name":"SEEDS II (CO-66)","line1":"1 32791U 08021J   26177.47033514  .00018788  00000+0  59022-3 0  9995","line2":"2 32791  97.7516 175.8130 0000491 216.1627 143.9581 15.33053587988717"},{"name":"YUBILEINY (RS30)","line1":"1 32953U 08025A   26177.75582913  .00000045  00000+0  25141-3 0  9994","line2":"2 32953  82.5046 349.4872 0018575 291.9023  68.0082 12.43179936820883"},{"name":"KKS-1 (KISEKI)","line1":"1 33499U 09002H   26177.76926486  .00001239  00000+0  15879-3 0  9997","line2":"2 33499  98.1187 100.3635 0006389 257.8802 102.1695 14.83146255937619"},{"name":"SWISSCUBE","line1":"1 35932U 09051B   26177.47338387  .00000909  00000+0  18915-3 0  9997","line2":"2 35932  98.4029  85.5233 0006640 172.3713 187.7590 14.62497638890512"},{"name":"BEESAT-1","line1":"1 35933U 09051C   26177.69301353  .00000752  00000+0  16076-3 0  9997","line2":"2 35933  98.3957  85.3622 0004848 183.3217 176.7952 14.61734342890572"},{"name":"ITUPSAT1","line1":"1 35935U 09051E   26177.69222980  .00000700  00000+0  15443-3 0  9997","line2":"2 35935  98.4042  84.5432 0006751 199.9772 160.1164 14.60453570890127"},{"name":"XIWANG-1 (HOPE-1)","line1":"1 36122U 09072B   26177.74377061  .00000075  00000+0  31166-3 0  9991","line2":"2 36122 100.4023 131.4231 0007068 207.8505 152.2230 13.16440508794264"},{"name":"O/OREOS (USA 219)","line1":"1 37224U 10062C   26177.70572954  .00002184  00000+0  21150-3 0  9995","line2":"2 37224  71.9714  58.7781 0012916  42.8270 317.3904 14.93781613118063"},{"name":"JUGNU","line1":"1 37839U 11058B   26177.53589059  .00000401  00000+0  69666-4 0  9993","line2":"2 37839  19.9598 251.6330 0018468 179.0814 209.6126 14.13778961760354"},{"name":"SRMSAT","line1":"1 37841U 11058D   26177.54557073  .00000370  00000+0  56800-4 0  9999","line2":"2 37841  19.9735   2.8256 0011714 307.2404  82.9527 14.11577357759146"},{"name":"STRAND-1","line1":"1 39090U 13009E   26177.73342244  .00000270  00000+0  10506-3 0  9999","line2":"2 39090  98.3924 357.7329 0008261 194.5261 165.5690 14.37168557698438"},{"name":"ZACUBE-1 (TSHEPISOSAT)","line1":"1 39417U 13066B   26177.47231079  .00003406  00000+0  26520-3 0  9996","line2":"2 39417  97.8048 139.8569 0042084 216.0503 143.7882 15.01236338682122"},{"name":"GOMX-1","line1":"1 39430U 13066Q   26177.37844231  .00001907  00000+0  29013-3 0  9994","line2":"2 39430  97.6486  17.2611 0129856  48.3749 312.8495 14.69489682671266"}]